{"type":"FeatureCollection","features":[{"type":"Feature","geometry":{"type":"Point","coordinates":[-17.43792,14.66996]},"properties":{"name":"Marché Sandaga"}},{"type":"Feature","geometry":{"type":"Point","coordinates":[-17.45777,14.6768]},"properties":{"name":"Village Artisanal de Soumbédioune"}},{"type":"Feature","geometry":{"type":"Point","coordinates":[-17.4451,14.70591]},"properties":{"name":"Marché HLM 5"}},{"type":"Feature","geometry":{"type":"Point","coordinates":[-17.22654,14.77877]},"properties":{"name":"Marche de Sangalkam"}},{"type":"Feature","geometry":{"type":"Point","coordinates":[-16.72351,13.44868]},"properties":{"name":""}},{"type":"Feature","geometry":{"type":"Point","coordinates":[-17.39556,14.75907]},"properties":{"name":"Marché Zing"}},{"type":"Feature","geometry":{"type":"Point","coordinates":[-17.405,14.7413]},"properties":{"name":""}},{"type":"Feature","geometry":{"type":"Point","coordinates":[-15.48062,15.35071]},"properties":{"name":""}},{"type":"Feature","geometry":{"type":"Point","coordinates":[-16.49073,14.94124]},"properties":{"name":""}},{"type":"Feature","geometry":{"type":"Point","coordinates":[-16.56712,14.72487]},"properties":{"name":""}},{"type":"Feature","geometry":{"type":"Point","coordinates":[-16.52421,14.36846]},"properties":{"name":""}},{"type":"Feature","geometry":{"type":"Point","coordinates":[-16.22759,12.79752]},"properties":{"name":"Nouveau Marché de Bignona"}},{"type":"Feature","geometry":{"type":"Point","coordinates":[-16.07541,15.41817]},"properties":{"name":""}},{"type":"Feature","geometry":{"type":"Point","coordinates":[-16.2214,15.61958]},"properties":{"name":"Marché Central de Marbath"}},{"type":"Feature","geometry":{"type":"Point","coordinates":[-16.22415,15.62378]},"properties":{"name":"Marché police"}},{"type":"Feature","geometry":{"type":"Point","coordinates":[-16.06573,14.1583]},"properties":{"name":"Marché Medina Baye"}},{"type":"Feature","geometry":{"type":"Point","coordinates":[-14.10479,16.25582]},"properties":{"name":""}},{"type":"Feature","geometry":{"type":"Point","coordinates":[-15.22246,16.52735]},"properties":{"name":""}},{"type":"Feature","geometry":{"type":"Point","coordinates":[-17.44259,14.746]},"properties":{"name":"Marché Patte d'Oie"}},{"type":"Feature","geometry":{"type":"Point","coordinates":[-17.45202,14.69311]},"properties":{"name":"Marché de Fass"}},{"type":"Feature","geometry":{"type":"Point","coordinates":[-17.27569,14.71362]},"properties":{"name":"Marché de Rufisque"}},{"type":"Feature","geometry":{"type":"Point","coordinates":[-16.27365,12.5884]},"properties":{"name":"Marché de l'Ancien Bac"}},{"type":"Feature","geometry":{"type":"Point","coordinates":[-16.63173,15.11181]},"properties":{"name":"Marché couvert de Méckhé"}},{"type":"Feature","geometry":{"type":"Point","coordinates":[-16.26465,12.56807]},"properties":{"name":"Marché Tilène"}},{"type":"Feature","geometry":{"type":"Point","coordinates":[-16.27569,12.57414]},"properties":{"name":"Marché Saint-Maur"}},{"type":"Feature","geometry":{"type":"Point","coordinates":[-16.22833,12.80905]},"properties":{"name":"Daral de Bignona"}},{"type":"Feature","geometry":{"type":"Point","coordinates":[-16.50783,16.0271]},"properties":{"name":"Marché Ndar"}},{"type":"Feature","geometry":{"type":"Point","coordinates":[-17.45642,14.67927]},"properties":{"name":"Marché Gueule Tapée"}},{"type":"Feature","geometry":{"type":"Point","coordinates":[-17.44967,14.6817]},"properties":{"name":"Marché Tilène"}},{"type":"Feature","geometry":{"type":"Point","coordinates":[-17.44368,14.67716]},"properties":{"name":""}},{"type":"Feature","geometry":{"type":"Point","coordinates":[-16.92864,14.7811]},"properties":{"name":"Marche Grand Thiès"}},{"type":"Feature","geometry":{"type":"Point","coordinates":[-17.43147,14.75817]},"properties":{"name":"Marché Unitè 11"}},{"type":"Feature","geometry":{"type":"Point","coordinates":[-15.98921,15.50287]},"properties":{"name":""}},{"type":"Feature","geometry":{"type":"Point","coordinates":[-14.75444,16.54574]},"properties":{"name":"Marché Municipal"}},{"type":"Feature","geometry":{"type":"Point","coordinates":[-15.68364,16.46588]},"properties":{"name":""}},{"type":"Feature","geometry":{"type":"Point","coordinates":[-16.47433,13.78298]},"properties":{"name":"Marché"}},{"type":"Feature","geometry":{"type":"Point","coordinates":[-17.42889,14.67048]},"properties":{"name":"Marché Kermel"}},{"type":"Feature","geometry":{"type":"Point","coordinates":[-16.26036,12.57171]},"properties":{"name":"Marché kandé"}},{"type":"Feature","geometry":{"type":"Point","coordinates":[-16.28897,12.57487]},"properties":{"name":"Marché de Colobane"}},{"type":"Feature","geometry":{"type":"Point","coordinates":[-16.29229,12.57259]},"properties":{"name":"Marché Maracana"}},{"type":"Feature","geometry":{"type":"Point","coordinates":[-16.27712,12.57331]},"properties":{"name":"Marché Mancagne"}},{"type":"Feature","geometry":{"type":"Point","coordinates":[-16.73857,12.38814]},"properties":{"name":"Marché Artisanal du Cap Skirring"}},{"type":"Feature","geometry":{"type":"Point","coordinates":[-16.96968,14.40775]},"properties":{"name":"marché aux poissons"}},{"type":"Feature","geometry":{"type":"Point","coordinates":[-17.13409,14.74521]},"properties":{"name":"Marché de Sébikotane"}},{"type":"Feature","geometry":{"type":"Point","coordinates":[-16.73769,12.38723]},"properties":{"name":"Marché à légumes du Cap Skirring"}},{"type":"Feature","geometry":{"type":"Point","coordinates":[-17.39512,14.77367]},"properties":{"name":"Marché Sahm"}},{"type":"Feature","geometry":{"type":"Point","coordinates":[-13.32748,15.60592]},"properties":{"name":"Ourossogui Market"}},{"type":"Feature","geometry":{"type":"Point","coordinates":[-17.39201,14.75594]},"properties":{"name":"Sandicat"}},{"type":"Feature","geometry":{"type":"Point","coordinates":[-16.73521,12.92691]},"properties":{"name":""}},{"type":"Feature","geometry":{"type":"Point","coordinates":[-17.22922,14.6938]},"properties":{"name":"Marché Central de Bargny"}},{"type":"Feature","geometry":{"type":"Point","coordinates":[-16.40388,14.32863]},"properties":{"name":"Marché"}},{"type":"Feature","geometry":{"type":"Point","coordinates":[-16.07968,13.2296]},"properties":{"name":""}},{"type":"Feature","geometry":{"type":"Point","coordinates":[-16.75972,13.17864]},"properties":{"name":""}},{"type":"Feature","geometry":{"type":"Point","coordinates":[-16.75982,13.17862]},"properties":{"name":""}},{"type":"Feature","geometry":{"type":"Point","coordinates":[-16.25824,13.98566]},"properties":{"name":""}},{"type":"Feature","geometry":{"type":"Point","coordinates":[-16.06847,14.49266]},"properties":{"name":""}},{"type":"Feature","geometry":{"type":"Point","coordinates":[-16.28985,14.46254]},"properties":{"name":""}},{"type":"Feature","geometry":{"type":"Point","coordinates":[-16.45621,14.69767]},"properties":{"name":"Marché de bambey"}},{"type":"Feature","geometry":{"type":"Point","coordinates":[-16.64828,13.27272]},"properties":{"name":"Brikama Market"}},{"type":"Feature","geometry":{"type":"Point","coordinates":[-16.93799,14.77058]},"properties":{"name":"Marché mbour 2"}},{"type":"Feature","geometry":{"type":"Point","coordinates":[-16.75082,14.27655]},"properties":{"name":""}},{"type":"Feature","geometry":{"type":"Point","coordinates":[-16.57179,13.45411]},"properties":{"name":"Albert Market"}},{"type":"Feature","geometry":{"type":"Point","coordinates":[-16.58653,13.45407]},"properties":{"name":"Lasso Wharf Market"}},{"type":"Feature","geometry":{"type":"Point","coordinates":[-16.57894,13.45021]},"properties":{"name":""}},{"type":"Feature","geometry":{"type":"Point","coordinates":[-16.69129,13.4345]},"properties":{"name":"Bakoteh Fish Market"}},{"type":"Feature","geometry":{"type":"Point","coordinates":[-16.71097,13.43271]},"properties":{"name":""}},{"type":"Feature","geometry":{"type":"Point","coordinates":[-16.72948,13.40211]},"properties":{"name":""}},{"type":"Feature","geometry":{"type":"Point","coordinates":[-16.65734,13.40312]},"properties":{"name":""}},{"type":"Feature","geometry":{"type":"Point","coordinates":[-16.64718,13.27327]},"properties":{"name":""}},{"type":"Feature","geometry":{"type":"Point","coordinates":[-16.66933,13.34328]},"properties":{"name":""}},{"type":"Feature","geometry":{"type":"Point","coordinates":[-16.66827,13.33132]},"properties":{"name":""}},{"type":"Feature","geometry":{"type":"Point","coordinates":[-16.66322,13.31517]},"properties":{"name":"Farato Market"}},{"type":"Feature","geometry":{"type":"Point","coordinates":[-16.40026,14.48225]},"properties":{"name":"Marché hebdomadaire"}},{"type":"Feature","geometry":{"type":"Point","coordinates":[-15.74702,14.36385]},"properties":{"name":""}},{"type":"Feature","geometry":{"type":"Point","coordinates":[-15.7587,14.53679]},"properties":{"name":""}},{"type":"Feature","geometry":{"type":"Point","coordinates":[-15.68091,16.46412]},"properties":{"name":"Marché de Khouma"}},{"type":"Feature","geometry":{"type":"Point","coordinates":[-15.58747,13.76914]},"properties":{"name":"Marché Bou Bess"}},{"type":"Feature","geometry":{"type":"Point","coordinates":[-17.42603,14.72734]},"properties":{"name":"Marché Bou Mak"}},{"type":"Feature","geometry":{"type":"Point","coordinates":[-17.06172,14.76978]},"properties":{"name":"Marché de Pout"}},{"type":"Feature","geometry":{"type":"Point","coordinates":[-15.74635,14.12753]},"properties":{"name":""}},{"type":"Feature","geometry":{"type":"Point","coordinates":[-17.31472,14.77392]},"properties":{"name":"Marché Ainoumady"}},{"type":"Feature","geometry":{"type":"Point","coordinates":[-16.49733,16.02511]},"properties":{"name":"Marché Sor"}},{"type":"Feature","geometry":{"type":"Point","coordinates":[-16.49756,16.02429]},"properties":{"name":"Marché Gare"}},{"type":"Feature","geometry":{"type":"Point","coordinates":[-16.66174,14.1883]},"properties":{"name":"Grand Marché"}},{"type":"Feature","geometry":{"type":"Point","coordinates":[-16.83881,14.15838]},"properties":{"name":"Marché Central"}},{"type":"Feature","geometry":{"type":"Point","coordinates":[-13.67393,13.77603]},"properties":{"name":""}},{"type":"Feature","geometry":{"type":"Point","coordinates":[-13.6579,13.77289]},"properties":{"name":""}},{"type":"Feature","geometry":{"type":"Point","coordinates":[-16.08133,14.16578]},"properties":{"name":""}},{"type":"Feature","geometry":{"type":"Point","coordinates":[-16.44422,15.37053]},"properties":{"name":"Marché"}},{"type":"Feature","geometry":{"type":"Point","coordinates":[-16.45022,12.51314]},"properties":{"name":"Marché couvert"}},{"type":"Feature","geometry":{"type":"Point","coordinates":[-15.92348,13.91939]},"properties":{"name":""}},{"type":"Feature","geometry":{"type":"Point","coordinates":[-15.66987,13.91645]},"properties":{"name":""}},{"type":"Feature","geometry":{"type":"Point","coordinates":[-15.85514,13.84627]},"properties":{"name":""}},{"type":"Feature","geometry":{"type":"Point","coordinates":[-17.44811,14.71449]},"properties":{"name":"Marche Mbabass"}},{"type":"Feature","geometry":{"type":"Point","coordinates":[-14.08234,13.40367]},"properties":{"name":""}},{"type":"Feature","geometry":{"type":"Point","coordinates":[-17.45132,14.71037]},"properties":{"name":"Marché Nguelaw"}},{"type":"Feature","geometry":{"type":"Point","coordinates":[-17.4872,14.71916]},"properties":{"name":""}},{"type":"Feature","geometry":{"type":"Point","coordinates":[-16.17342,12.56813]},"properties":{"name":"Marché"}},{"type":"Feature","geometry":{"type":"Point","coordinates":[-15.5875,13.76906]},"properties":{"name":"Marché Bou Bess"}},{"type":"Feature","geometry":{"type":"Point","coordinates":[-15.58766,13.76901]},"properties":{"name":"Marché Bou Bess"}},{"type":"Feature","geometry":{"type":"Point","coordinates":[-15.58755,13.76957]},"properties":{"name":"Marché Bou Bess"}},{"type":"Feature","geometry":{"type":"Point","coordinates":[-15.58769,13.76957]},"properties":{"name":"Marché Bou Bess"}},{"type":"Feature","geometry":{"type":"Point","coordinates":[-16.96042,14.42316]},"properties":{"name":"marché bou ndaw"}},{"type":"Feature","geometry":{"type":"Point","coordinates":[-16.95962,14.41396]},"properties":{"name":"Marché Ngualaw"}},{"type":"Feature","geometry":{"type":"Point","coordinates":[-17.47445,14.75854]},"properties":{"name":"Marche de Yoff"}},{"type":"Feature","geometry":{"type":"Point","coordinates":[-17.44901,14.72439]},"properties":{"name":""}},{"type":"Feature","geometry":{"type":"Point","coordinates":[-17.45365,14.73508]},"properties":{"name":""}},{"type":"Feature","geometry":{"type":"Point","coordinates":[-17.46374,14.72375]},"properties":{"name":""}},{"type":"Feature","geometry":{"type":"Point","coordinates":[-17.44883,14.73892]},"properties":{"name":"Marché de Grand Yoff"}},{"type":"Feature","geometry":{"type":"Point","coordinates":[-17.49116,14.7287]},"properties":{"name":"Marché Salagne Salagne"}},{"type":"Feature","geometry":{"type":"Point","coordinates":[-17.48748,14.72363]},"properties":{"name":"Marché Ouakam"}},{"type":"Feature","geometry":{"type":"Point","coordinates":[-17.42835,14.7538]},"properties":{"name":"Marché de Cambérène"}},{"type":"Feature","geometry":{"type":"Point","coordinates":[-17.43872,14.75908]},"properties":{"name":"Marché Serigne Abdoul Aziz Sy Dabakh"}},{"type":"Feature","geometry":{"type":"Point","coordinates":[-17.44712,14.75825]},"properties":{"name":"Marché Dior"}},{"type":"Feature","geometry":{"type":"Point","coordinates":[-17.31692,14.77974]},"properties":{"name":"Marché Unité 4"}},{"type":"Feature","geometry":{"type":"Point","coordinates":[-16.9453,14.42217]},"properties":{"name":"Daralle"}},{"type":"Feature","geometry":{"type":"Point","coordinates":[-17.43857,14.75839]},"properties":{"name":""}},{"type":"Feature","geometry":{"type":"Point","coordinates":[-15.54729,14.1035]},"properties":{"name":""}},{"type":"Feature","geometry":{"type":"Point","coordinates":[-17.38086,14.77955]},"properties":{"name":"Marché Ndiaréme"}},{"type":"Feature","geometry":{"type":"Point","coordinates":[-16.07659,14.14031]},"properties":{"name":"Village Artisanal de Kaolack"}},{"type":"Feature","geometry":{"type":"Point","coordinates":[-17.38934,14.78078]},"properties":{"name":"Maché Mame Diarra"}},{"type":"Feature","geometry":{"type":"Point","coordinates":[-17.26137,14.71683]},"properties":{"name":"Marche Arafat 2"}},{"type":"Feature","geometry":{"type":"Point","coordinates":[-17.17219,14.74166]},"properties":{"name":"Marché de Sebi Ponty"}},{"type":"Feature","geometry":{"type":"Point","coordinates":[-15.5772,13.43935]},"properties":{"name":"Daily market"}},{"type":"Feature","geometry":{"type":"Point","coordinates":[-15.79955,13.39306]},"properties":{"name":"Kwinella Lumo"}},{"type":"Feature","geometry":{"type":"Point","coordinates":[-17.27589,14.71277]},"properties":{"name":"Marché légumes"}},{"type":"Feature","geometry":{"type":"Point","coordinates":[-16.13967,16.27862]},"properties":{"name":""}},{"type":"Feature","geometry":{"type":"Point","coordinates":[-15.80024,16.51005]},"properties":{"name":"السوق روصو المركزي"}},{"type":"Feature","geometry":{"type":"Point","coordinates":[-15.90345,13.75665]},"properties":{"name":""}},{"type":"Feature","geometry":{"type":"Point","coordinates":[-15.50772,16.5236]},"properties":{"name":"Marché central de Dagana"}},{"type":"Feature","geometry":{"type":"Point","coordinates":[-14.43233,16.48612]},"properties":{"name":""}},{"type":"Feature","geometry":{"type":"Point","coordinates":[-14.95699,16.65251]},"properties":{"name":""}},{"type":"Feature","geometry":{"type":"Point","coordinates":[-16.17231,15.28062]},"properties":{"name":""}},{"type":"Feature","geometry":{"type":"Point","coordinates":[-16.66187,14.81765]},"properties":{"name":""}},{"type":"Feature","geometry":{"type":"Point","coordinates":[-15.94475,14.26995]},"properties":{"name":"Marché de Guinguinéo"}},{"type":"Feature","geometry":{"type":"Point","coordinates":[-16.37528,13.88151]},"properties":{"name":"Marché de Sokone"}},{"type":"Feature","geometry":{"type":"Point","coordinates":[-15.9125,14.84754]},"properties":{"name":""}},{"type":"Feature","geometry":{"type":"Point","coordinates":[-16.05734,13.84757]},"properties":{"name":"Marché de Keur Madiabel"}},{"type":"Feature","geometry":{"type":"Point","coordinates":[-14.80565,13.98067]},"properties":{"name":""}},{"type":"Feature","geometry":{"type":"Point","coordinates":[-16.04705,15.04164]},"properties":{"name":""}},{"type":"Feature","geometry":{"type":"Point","coordinates":[-15.30804,14.62162]},"properties":{"name":""}},{"type":"Feature","geometry":{"type":"Point","coordinates":[-15.29671,14.82012]},"properties":{"name":""}},{"type":"Feature","geometry":{"type":"Point","coordinates":[-15.60021,13.58367]},"properties":{"name":""}},{"type":"Feature","geometry":{"type":"Point","coordinates":[-16.25348,15.03737]},"properties":{"name":""}},{"type":"Feature","geometry":{"type":"Point","coordinates":[-16.30255,15.1755]},"properties":{"name":""}},{"type":"Feature","geometry":{"type":"Point","coordinates":[-16.41688,15.11151]},"properties":{"name":""}},{"type":"Feature","geometry":{"type":"Point","coordinates":[-16.73361,15.01299]},"properties":{"name":"Marché de Pire Goureye"}},{"type":"Feature","geometry":{"type":"Point","coordinates":[-17.12309,14.91539]},"properties":{"name":""}},{"type":"Feature","geometry":{"type":"Point","coordinates":[-16.34038,15.47929]},"properties":{"name":""}},{"type":"Feature","geometry":{"type":"Point","coordinates":[-15.32955,13.98328]},"properties":{"name":""}},{"type":"Feature","geometry":{"type":"Point","coordinates":[-15.29178,14.08982]},"properties":{"name":""}},{"type":"Feature","geometry":{"type":"Point","coordinates":[-15.3295,13.69899]},"properties":{"name":"Kaur Lumo"}},{"type":"Feature","geometry":{"type":"Point","coordinates":[-15.59643,13.57078]},"properties":{"name":"Farafenni Market"}},{"type":"Feature","geometry":{"type":"Point","coordinates":[-14.927,14.28557]},"properties":{"name":""}},{"type":"Feature","geometry":{"type":"Point","coordinates":[-15.53575,13.44042]},"properties":{"name":"Soma Daily Market"}},{"type":"Feature","geometry":{"type":"Point","coordinates":[-17.17209,14.64012]},"properties":{"name":"Marché central de Yène Guedji"}},{"type":"Feature","geometry":{"type":"Point","coordinates":[-16.26465,12.5681]},"properties":{"name":""}},{"type":"Feature","geometry":{"type":"Point","coordinates":[-15.87731,14.81709]},"properties":{"name":""}},{"type":"Feature","geometry":{"type":"Point","coordinates":[-15.86817,14.81931]},"properties":{"name":""}},{"type":"Feature","geometry":{"type":"Point","coordinates":[-15.88182,14.79958]},"properties":{"name":""}},{"type":"Feature","geometry":{"type":"Point","coordinates":[-15.89277,14.87987]},"properties":{"name":""}},{"type":"Feature","geometry":{"type":"Point","coordinates":[-15.87545,14.88589]},"properties":{"name":"Marché de Guédé Bousso"}},{"type":"Feature","geometry":{"type":"Point","coordinates":[-15.88173,14.9046]},"properties":{"name":""}},{"type":"Feature","geometry":{"type":"Point","coordinates":[-15.95224,14.87345]},"properties":{"name":""}},{"type":"Feature","geometry":{"type":"Point","coordinates":[-15.92886,14.88198]},"properties":{"name":""}},{"type":"Feature","geometry":{"type":"Point","coordinates":[-16.1995,12.40501]},"properties":{"name":""}},{"type":"Feature","geometry":{"type":"Point","coordinates":[-16.27051,12.58742]},"properties":{"name":"Marché Escale"}},{"type":"Feature","geometry":{"type":"Point","coordinates":[-15.90171,14.9068]},"properties":{"name":""}},{"type":"Feature","geometry":{"type":"Point","coordinates":[-15.94292,14.8531]},"properties":{"name":""}},{"type":"Feature","geometry":{"type":"Point","coordinates":[-15.90481,14.82875]},"properties":{"name":""}},{"type":"Feature","geometry":{"type":"Point","coordinates":[-15.91561,14.8696]},"properties":{"name":""}},{"type":"Feature","geometry":{"type":"Point","coordinates":[-15.88694,14.83929]},"properties":{"name":""}},{"type":"Feature","geometry":{"type":"Point","coordinates":[-15.89962,14.84407]},"properties":{"name":""}},{"type":"Feature","geometry":{"type":"Point","coordinates":[-15.91818,14.828]},"properties":{"name":""}},{"type":"Feature","geometry":{"type":"Point","coordinates":[-15.92596,14.83381]},"properties":{"name":""}},{"type":"Feature","geometry":{"type":"Point","coordinates":[-16.9362,14.80566]},"properties":{"name":"Diakhao"}},{"type":"Feature","geometry":{"type":"Point","coordinates":[-15.86466,14.86469]},"properties":{"name":""}},{"type":"Feature","geometry":{"type":"Point","coordinates":[-15.89505,14.8625]},"properties":{"name":""}},{"type":"Feature","geometry":{"type":"Point","coordinates":[-15.89285,14.81777]},"properties":{"name":""}},{"type":"Feature","geometry":{"type":"Point","coordinates":[-15.90119,14.79045]},"properties":{"name":""}},{"type":"Feature","geometry":{"type":"Point","coordinates":[-15.95615,14.82013]},"properties":{"name":""}},{"type":"Feature","geometry":{"type":"Point","coordinates":[-15.90258,14.87729]},"properties":{"name":"Market"}},{"type":"Feature","geometry":{"type":"Point","coordinates":[-15.8625,14.83936]},"properties":{"name":""}},{"type":"Feature","geometry":{"type":"Point","coordinates":[-15.90215,14.81175]},"properties":{"name":"Marché Massamba Dieng(Mame Rama)"}},{"type":"Feature","geometry":{"type":"Point","coordinates":[-16.34295,13.20267]},"properties":{"name":""}},{"type":"Feature","geometry":{"type":"Point","coordinates":[-15.89064,14.89801]},"properties":{"name":""}},{"type":"Feature","geometry":{"type":"Point","coordinates":[-15.84704,14.85974]},"properties":{"name":""}},{"type":"Feature","geometry":{"type":"Point","coordinates":[-15.88211,14.82644]},"properties":{"name":""}},{"type":"Feature","geometry":{"type":"Point","coordinates":[-15.86222,14.90086]},"properties":{"name":""}},{"type":"Feature","geometry":{"type":"Point","coordinates":[-16.11059,14.74045]},"properties":{"name":""}},{"type":"Feature","geometry":{"type":"Point","coordinates":[-15.64718,14.78945]},"properties":{"name":""}},{"type":"Feature","geometry":{"type":"Point","coordinates":[-15.7058,14.64495]},"properties":{"name":""}},{"type":"Feature","geometry":{"type":"Point","coordinates":[-15.85335,14.66979]},"properties":{"name":""}},{"type":"Feature","geometry":{"type":"Point","coordinates":[-17.37922,14.7564]},"properties":{"name":"Marché Thiaroye"}},{"type":"Feature","geometry":{"type":"Point","coordinates":[-17.44047,14.75258]},"properties":{"name":"Marché Police"}},{"type":"Feature","geometry":{"type":"Point","coordinates":[-17.36967,14.78477]},"properties":{"name":""}},{"type":"Feature","geometry":{"type":"Point","coordinates":[-17.35384,14.76145]},"properties":{"name":""}},{"type":"Feature","geometry":{"type":"Point","coordinates":[-16.90755,14.77455]},"properties":{"name":""}},{"type":"Feature","geometry":{"type":"Point","coordinates":[-16.47572,14.53698]},"properties":{"name":""}},{"type":"Feature","geometry":{"type":"Point","coordinates":[-16.46335,15.7192]},"properties":{"name":""}},{"type":"Feature","geometry":{"type":"Point","coordinates":[-17.45442,14.72818]},"properties":{"name":"Marché aux chaussures"}},{"type":"Feature","geometry":{"type":"Point","coordinates":[-16.18604,15.8283]},"properties":{"name":"Marché de Nguik Fal"}},{"type":"Feature","geometry":{"type":"Point","coordinates":[-15.91082,16.17865]},"properties":{"name":"Marché de Nguith"}},{"type":"Feature","geometry":{"type":"Point","coordinates":[-15.96746,15.92757]},"properties":{"name":"Marché de Keur Momar Sarr"}},{"type":"Feature","geometry":{"type":"Point","coordinates":[-15.55246,15.76273]},"properties":{"name":"Marché de Mbaye Awa"}},{"type":"Feature","geometry":{"type":"Point","coordinates":[-15.11651,15.39455]},"properties":{"name":"Marché de Linguère"}},{"type":"Feature","geometry":{"type":"Point","coordinates":[-14.72617,15.26601]},"properties":{"name":"Marché de Loumbel Lama"}},{"type":"Feature","geometry":{"type":"Point","coordinates":[-14.67418,14.99907]},"properties":{"name":"Marché de Vélingara"}},{"type":"Feature","geometry":{"type":"Point","coordinates":[-14.74419,14.63145]},"properties":{"name":""}},{"type":"Feature","geometry":{"type":"Point","coordinates":[-14.44198,15.04909]},"properties":{"name":""}},{"type":"Feature","geometry":{"type":"Point","coordinates":[-12.90094,15.08308]},"properties":{"name":""}},{"type":"Feature","geometry":{"type":"Point","coordinates":[-17.45184,14.75973]},"properties":{"name":""}},{"type":"Feature","geometry":{"type":"Point","coordinates":[-16.47442,13.78312]},"properties":{"name":""}},{"type":"Feature","geometry":{"type":"Point","coordinates":[-13.96133,15.29627]},"properties":{"name":"Marché hebdomadaire"}},{"type":"Feature","geometry":{"type":"Point","coordinates":[-15.93291,14.07021]},"properties":{"name":""}},{"type":"Feature","geometry":{"type":"Point","coordinates":[-16.81553,14.95187]},"properties":{"name":""}},{"type":"Feature","geometry":{"type":"Point","coordinates":[-17.38459,14.75061]},"properties":{"name":"Marche Warancka"}},{"type":"Feature","geometry":{"type":"Point","coordinates":[-17.39381,14.75486]},"properties":{"name":"Marche Syndicat"}},{"type":"Feature","geometry":{"type":"Point","coordinates":[-17.39385,14.76034]},"properties":{"name":"Marche Zinc"}},{"type":"Feature","geometry":{"type":"Point","coordinates":[-13.25405,15.66069]},"properties":{"name":""}},{"type":"Feature","geometry":{"type":"Point","coordinates":[-16.07597,14.13627]},"properties":{"name":""}},{"type":"Feature","geometry":{"type":"Point","coordinates":[-14.94054,12.89054]},"properties":{"name":"Marche"}},{"type":"Feature","geometry":{"type":"Point","coordinates":[-17.45132,14.71081]},"properties":{"name":""}},{"type":"Feature","geometry":{"type":"Point","coordinates":[-13.66273,15.99451]},"properties":{"name":""}},{"type":"Feature","geometry":{"type":"Point","coordinates":[-13.96027,15.29865]},"properties":{"name":""}},{"type":"Feature","geometry":{"type":"Point","coordinates":[-14.64858,15.56827]},"properties":{"name":""}},{"type":"Feature","geometry":{"type":"Point","coordinates":[-14.82599,16.7546]},"properties":{"name":""}},{"type":"Feature","geometry":{"type":"Point","coordinates":[-16.22256,15.61989]},"properties":{"name":"marché"}},{"type":"Feature","geometry":{"type":"Point","coordinates":[-16.2225,15.62038]},"properties":{"name":""}},{"type":"Feature","geometry":{"type":"Point","coordinates":[-16.2228,15.62043]},"properties":{"name":""}},{"type":"Feature","geometry":{"type":"Point","coordinates":[-17.46027,14.67889]},"properties":{"name":"Marché au poisson"}},{"type":"Feature","geometry":{"type":"Point","coordinates":[-16.7286,14.13053]},"properties":{"name":"Place du marché"}},{"type":"Feature","geometry":{"type":"Point","coordinates":[-17.32682,14.77709]},"properties":{"name":"Marché jumbo"}},{"type":"Feature","geometry":{"type":"Point","coordinates":[-17.28088,14.77231]},"properties":{"name":""}},{"type":"Feature","geometry":{"type":"Point","coordinates":[-17.33526,14.79324]},"properties":{"name":"Marché de Malika"}},{"type":"Feature","geometry":{"type":"Point","coordinates":[-16.22252,14.37517]},"properties":{"name":"Place du marché"}},{"type":"Feature","geometry":{"type":"Point","coordinates":[-13.15766,16.22022]},"properties":{"name":"السوق المركزي القصيبة"}},{"type":"Feature","geometry":{"type":"Point","coordinates":[-17.2511,14.81015]},"properties":{"name":""}},{"type":"Feature","geometry":{"type":"Point","coordinates":[-16.96394,14.42906]},"properties":{"name":""}},{"type":"Feature","geometry":{"type":"Point","coordinates":[-16.96605,14.40632]},"properties":{"name":""}},{"type":"Feature","geometry":{"type":"Point","coordinates":[-16.97832,14.42511]},"properties":{"name":""}},{"type":"Feature","geometry":{"type":"Point","coordinates":[-14.6544,13.43449]},"properties":{"name":""}},{"type":"Feature","geometry":{"type":"Point","coordinates":[-16.84766,15.26405]},"properties":{"name":""}},{"type":"Feature","geometry":{"type":"Point","coordinates":[-16.23174,14.65098]},"properties":{"name":"Marché Ndoumbé Diop"}},{"type":"Feature","geometry":{"type":"Point","coordinates":[-16.93111,14.79784]},"properties":{"name":"Marché Central de Thiès"}},{"type":"Feature","geometry":{"type":"Point","coordinates":[-17.18244,14.72]},"properties":{"name":""}},{"type":"Feature","geometry":{"type":"Point","coordinates":[-17.44363,14.69625]},"properties":{"name":"Marché de Colobane"}},{"type":"Feature","geometry":{"type":"Point","coordinates":[-15.80644,16.51051]},"properties":{"name":"Centre commercial Nasr مجمع النصر التجاري روصو"}},{"type":"Feature","geometry":{"type":"Point","coordinates":[-16.76149,13.09346]},"properties":{"name":""}},{"type":"Feature","geometry":{"type":"Point","coordinates":[-17.35513,14.77026]},"properties":{"name":""}},{"type":"Feature","geometry":{"type":"Point","coordinates":[-17.28791,14.71902]},"properties":{"name":"Marché"}},{"type":"Feature","geometry":{"type":"Point","coordinates":[-15.5455,14.79744]},"properties":{"name":"Marché Louma"}},{"type":"Feature","geometry":{"type":"Point","coordinates":[-17.47423,14.75764]},"properties":{"name":"Marché Yoff"}},{"type":"Feature","geometry":{"type":"Point","coordinates":[-17.33396,14.7744]},"properties":{"name":"Marché local Unité 14"}},{"type":"Feature","geometry":{"type":"Point","coordinates":[-16.65714,13.28933]},"properties":{"name":"Brikama Craft Market"}},{"type":"Feature","geometry":{"type":"Point","coordinates":[-12.90102,15.33806]},"properties":{"name":"marché Bédinki"}},{"type":"Feature","geometry":{"type":"Point","coordinates":[-12.90261,15.34064]},"properties":{"name":"marché Sithiane"}},{"type":"Feature","geometry":{"type":"Point","coordinates":[-17.40067,14.75083]},"properties":{"name":""}},{"type":"Feature","geometry":{"type":"Point","coordinates":[-17.40145,14.75027]},"properties":{"name":"chavanel"}},{"type":"Feature","geometry":{"type":"Point","coordinates":[-17.40597,14.77486]},"properties":{"name":""}},{"type":"Feature","geometry":{"type":"Point","coordinates":[-16.21478,14.65688]},"properties":{"name":""}},{"type":"Feature","geometry":{"type":"Point","coordinates":[-16.76484,13.14444]},"properties":{"name":""}},{"type":"Feature","geometry":{"type":"Point","coordinates":[-15.65441,14.43186]},"properties":{"name":""}},{"type":"Feature","geometry":{"type":"Point","coordinates":[-13.65954,13.76952]},"properties":{"name":"marnnier"}},{"type":"Feature","geometry":{"type":"Point","coordinates":[-13.67452,13.75895]},"properties":{"name":""}},{"type":"Feature","geometry":{"type":"Point","coordinates":[-17.35542,14.78133]},"properties":{"name":"Marché Bène Barraque"}},{"type":"Feature","geometry":{"type":"Point","coordinates":[-14.27398,16.58389]},"properties":{"name":"Marché de Boghé سوق بوغي"}},{"type":"Feature","geometry":{"type":"Point","coordinates":[-16.4948,16.01054]},"properties":{"name":"Marché Pikine"}},{"type":"Feature","geometry":{"type":"Point","coordinates":[-16.67464,13.42704]},"properties":{"name":"Tallinding Market"}},{"type":"Feature","geometry":{"type":"Point","coordinates":[-17.00444,14.51377]},"properties":{"name":""}},{"type":"Feature","geometry":{"type":"Point","coordinates":[-17.28991,14.76324]},"properties":{"name":""}},{"type":"Feature","geometry":{"type":"Point","coordinates":[-17.28742,14.77404]},"properties":{"name":""}},{"type":"Feature","geometry":{"type":"Point","coordinates":[-17.28474,14.77224]},"properties":{"name":""}},{"type":"Feature","geometry":{"type":"Point","coordinates":[-17.26846,14.81432]},"properties":{"name":""}},{"type":"Feature","geometry":{"type":"Point","coordinates":[-17.36281,14.74958]},"properties":{"name":""}},{"type":"Feature","geometry":{"type":"Point","coordinates":[-17.30625,14.7766]},"properties":{"name":""}},{"type":"Feature","geometry":{"type":"Point","coordinates":[-17.27495,14.80314]},"properties":{"name":""}},{"type":"Feature","geometry":{"type":"Point","coordinates":[-15.11497,15.39326]},"properties":{"name":"Marché aux poissons de Linguère"}},{"type":"Feature","geometry":{"type":"Point","coordinates":[-17.46798,14.72758]},"properties":{"name":"Marché barack"}},{"type":"Feature","geometry":{"type":"Point","coordinates":[-17.34222,14.7677]},"properties":{"name":""}},{"type":"Feature","geometry":{"type":"Point","coordinates":[-17.31423,14.74355]},"properties":{"name":""}},{"type":"Feature","geometry":{"type":"Point","coordinates":[-16.58171,14.57402]},"properties":{"name":""}},{"type":"Feature","geometry":{"type":"Point","coordinates":[-16.38054,14.56413]},"properties":{"name":""}},{"type":"Feature","geometry":{"type":"Point","coordinates":[-13.23191,15.68077]},"properties":{"name":""}},{"type":"Feature","geometry":{"type":"Point","coordinates":[-16.02901,12.06541]},"properties":{"name":"Mercado de Canchungo"}},{"type":"Feature","geometry":{"type":"Point","coordinates":[-15.61458,12.98178]},"properties":{"name":""}},{"type":"Feature","geometry":{"type":"Point","coordinates":[-15.24501,13.52142]},"properties":{"name":"Market"}},{"type":"Feature","geometry":{"type":"Point","coordinates":[-12.87442,15.33514]},"properties":{"name":"marché de wali"}},{"type":"Feature","geometry":{"type":"Point","coordinates":[-16.68011,13.36863]},"properties":{"name":""}},{"type":"Feature","geometry":{"type":"Point","coordinates":[-16.16538,12.27725]},"properties":{"name":"Mercado Municipal de Cacheu"}},{"type":"Feature","geometry":{"type":"Point","coordinates":[-15.1175,15.40225]},"properties":{"name":""}},{"type":"Feature","geometry":{"type":"Point","coordinates":[-15.1179,15.39278]},"properties":{"name":"Weekly Market Space"}},{"type":"Feature","geometry":{"type":"Point","coordinates":[-15.71063,12.10729]},"properties":{"name":"Mercado de Bula"}},{"type":"Feature","geometry":{"type":"Point","coordinates":[-16.17267,14.07262]},"properties":{"name":"Ancien Marché"}},{"type":"Feature","geometry":{"type":"Point","coordinates":[-17.51494,14.7459]},"properties":{"name":""}},{"type":"Feature","geometry":{"type":"Point","coordinates":[-16.68314,14.04353]},"properties":{"name":"Village artisanal de Mar Lodj"}},{"type":"Feature","geometry":{"type":"Point","coordinates":[-16.67904,14.04303]},"properties":{"name":"Place du village - Marché"}},{"type":"Feature","geometry":{"type":"Point","coordinates":[-16.45378,15.37171]},"properties":{"name":"Marché de Diamaguene"}},{"type":"Feature","geometry":{"type":"Point","coordinates":[-15.81863,14.87609]},"properties":{"name":""}},{"type":"Feature","geometry":{"type":"Point","coordinates":[-17.45455,14.68235]},"properties":{"name":"Marché de l'occasion des vêtements"}},{"type":"Feature","geometry":{"type":"Point","coordinates":[-17.45613,14.67957]},"properties":{"name":"Marché alimentaire"}},{"type":"Feature","geometry":{"type":"Point","coordinates":[-15.82411,13.69492]},"properties":{"name":""}},{"type":"Feature","geometry":{"type":"Point","coordinates":[-15.77881,13.74181]},"properties":{"name":""}},{"type":"Feature","geometry":{"type":"Point","coordinates":[-16.62691,13.26877]},"properties":{"name":"Jiddah Mini Market"}},{"type":"Feature","geometry":{"type":"Point","coordinates":[-16.0744,14.134]},"properties":{"name":""}},{"type":"Feature","geometry":{"type":"Point","coordinates":[-16.92118,14.78764]},"properties":{"name":""}},{"type":"Feature","geometry":{"type":"Point","coordinates":[-16.91665,14.77715]},"properties":{"name":""}},{"type":"Feature","geometry":{"type":"Point","coordinates":[-15.4565,16.59455]},"properties":{"name":"Marché au Bétail Gani"}},{"type":"Feature","geometry":{"type":"Point","coordinates":[-16.46419,13.20014]},"properties":{"name":"Kafuta Market"}},{"type":"Feature","geometry":{"type":"Point","coordinates":[-16.58537,14.64748]},"properties":{"name":"Marché de Ndondol"}},{"type":"Feature","geometry":{"type":"Point","coordinates":[-16.77697,13.38398]},"properties":{"name":""}},{"type":"Feature","geometry":{"type":"Point","coordinates":[-16.72972,13.40583]},"properties":{"name":"Turntable market"}},{"type":"Feature","geometry":{"type":"Point","coordinates":[-15.48148,15.35052]},"properties":{"name":"marché centrale"}},{"type":"Feature","geometry":{"type":"Point","coordinates":[-16.72924,13.40735]},"properties":{"name":""}},{"type":"Feature","geometry":{"type":"Point","coordinates":[-16.72921,13.40662]},"properties":{"name":""}},{"type":"Feature","geometry":{"type":"Point","coordinates":[-13.91716,16.31451]},"properties":{"name":"Marché Fondé Elimane"}},{"type":"Feature","geometry":{"type":"Point","coordinates":[-16.72786,13.40708]},"properties":{"name":""}},{"type":"Feature","geometry":{"type":"Point","coordinates":[-14.81582,15.83397]},"properties":{"name":""}},{"type":"Feature","geometry":{"type":"Point","coordinates":[-12.96943,15.29452]},"properties":{"name":""}},{"type":"Feature","geometry":{"type":"Point","coordinates":[-16.7206,13.44096]},"properties":{"name":"Sennegambia Craft Market"}},{"type":"Feature","geometry":{"type":"Point","coordinates":[-16.22324,15.62326]},"properties":{"name":"Grand Marché de thiokhna"}},{"type":"Feature","geometry":{"type":"Point","coordinates":[-16.22521,15.62342]},"properties":{"name":"Marché thiokhna"}},{"type":"Feature","geometry":{"type":"Point","coordinates":[-16.42394,13.60342]},"properties":{"name":"Marché de Karang"}},{"type":"Feature","geometry":{"type":"Point","coordinates":[-16.26,12.57197]},"properties":{"name":"Marché Banéto"}},{"type":"Feature","geometry":{"type":"Point","coordinates":[-16.66333,12.50863]},"properties":{"name":"Marché d'Elinkine"}},{"type":"Feature","geometry":{"type":"Point","coordinates":[-17.07573,14.48597]},"properties":{"name":""}},{"type":"Feature","geometry":{"type":"Point","coordinates":[-17.14722,14.73864]},"properties":{"name":""}},{"type":"Feature","geometry":{"type":"Point","coordinates":[-17.28271,14.72041]},"properties":{"name":"Marché aux bestiaux"}},{"type":"Feature","geometry":{"type":"Point","coordinates":[-14.76263,13.5425]},"properties":{"name":"Janjanbureh Market"}},{"type":"Feature","geometry":{"type":"Point","coordinates":[-13.45702,13.89382]},"properties":{"name":""}},{"type":"Feature","geometry":{"type":"Point","coordinates":[-14.95389,15.53232]},"properties":{"name":"Marché hebdomadaire de Dodji"}},{"type":"Feature","geometry":{"type":"Point","coordinates":[-17.44334,14.69868]},"properties":{"name":""}},{"type":"Feature","geometry":{"type":"Point","coordinates":[-17.44302,14.69673]},"properties":{"name":""}},{"type":"Feature","geometry":{"type":"Point","coordinates":[-17.44433,14.69771]},"properties":{"name":"Marché Colobane"}},{"type":"Feature","geometry":{"type":"Point","coordinates":[-16.49528,16.02327]},"properties":{"name":"FRIPERI"}},{"type":"Feature","geometry":{"type":"Point","coordinates":[-15.8093,16.50292]},"properties":{"name":"Marché de Rosso"}},{"type":"Feature","geometry":{"type":"Point","coordinates":[-13.52761,12.40419]},"properties":{"name":""}},{"type":"Feature","geometry":{"type":"Point","coordinates":[-16.49851,16.02329]},"properties":{"name":"marche bou bess"}},{"type":"Feature","geometry":{"type":"Point","coordinates":[-17.08419,14.64195]},"properties":{"name":""}},{"type":"Feature","geometry":{"type":"Point","coordinates":[-17.09109,14.60764]},"properties":{"name":""}},{"type":"Feature","geometry":{"type":"Point","coordinates":[-17.08419,14.64194]},"properties":{"name":""}},{"type":"Feature","geometry":{"type":"Point","coordinates":[-16.87741,15.13276]},"properties":{"name":""}},{"type":"Feature","geometry":{"type":"Point","coordinates":[-13.68971,16.00889]},"properties":{"name":"Marché central d'Agnam-Goly"}},{"type":"Feature","geometry":{"type":"Point","coordinates":[-16.81233,14.96016]},"properties":{"name":"mango gui"}},{"type":"Feature","geometry":{"type":"Point","coordinates":[-16.59814,13.04262]},"properties":{"name":"Marché de Diouloulou"}},{"type":"Feature","geometry":{"type":"Point","coordinates":[-16.69179,14.07552]},"properties":{"name":"Petit marché"}},{"type":"Feature","geometry":{"type":"Point","coordinates":[-16.57601,15.18436]},"properties":{"name":"Marché de Kelle"}},{"type":"Feature","geometry":{"type":"Point","coordinates":[-16.54943,15.10434]},"properties":{"name":"Marché de Merina Dakhar"}},{"type":"Feature","geometry":{"type":"Point","coordinates":[-17.45133,14.71436]},"properties":{"name":"Marché Nguelaw 2"}},{"type":"Feature","geometry":{"type":"Point","coordinates":[-17.40068,14.77645]},"properties":{"name":"Marché Serigne Mansour Sy"}},{"type":"Feature","geometry":{"type":"Point","coordinates":[-17.33579,14.79296]},"properties":{"name":"Entrée marché Malika"}},{"type":"Feature","geometry":{"type":"Point","coordinates":[-17.43682,14.73612]},"properties":{"name":"mini marché mariste"}},{"type":"Feature","geometry":{"type":"Point","coordinates":[-13.12335,12.53555]},"properties":{"name":""}},{"type":"Feature","geometry":{"type":"Point","coordinates":[-13.29684,12.48442]},"properties":{"name":"Marché de Koundara"}},{"type":"Feature","geometry":{"type":"Point","coordinates":[-17.3822,14.76631]},"properties":{"name":"Nièty Mbar"}},{"type":"Feature","geometry":{"type":"Point","coordinates":[-17.36501,14.77267]},"properties":{"name":"Marché Diamalaye"}},{"type":"Feature","geometry":{"type":"Point","coordinates":[-15.87784,12.57347]},"properties":{"name":"Marché central"}},{"type":"Feature","geometry":{"type":"Point","coordinates":[-17.44813,14.71445]},"properties":{"name":"Mbabass"}},{"type":"Feature","geometry":{"type":"Point","coordinates":[-17.26356,14.81633]},"properties":{"name":""}},{"type":"Feature","geometry":{"type":"Point","coordinates":[-17.2658,14.81965]},"properties":{"name":""}},{"type":"Feature","geometry":{"type":"Point","coordinates":[-17.25161,14.80986]},"properties":{"name":"Marché de Niague"}},{"type":"Feature","geometry":{"type":"Point","coordinates":[-15.90523,14.86088]},"properties":{"name":"Marche Dianatou"}},{"type":"Feature","geometry":{"type":"Point","coordinates":[-17.47957,14.7647]},"properties":{"name":"Marché de poissons Yoff Tangor"}},{"type":"Feature","geometry":{"type":"Point","coordinates":[-12.81945,12.63102]},"properties":{"name":"Luumo Salemata"}},{"type":"Feature","geometry":{"type":"Point","coordinates":[-17.18581,14.8016]},"properties":{"name":""}},{"type":"Feature","geometry":{"type":"Point","coordinates":[-16.68216,13.44085]},"properties":{"name":"Serrekunda Market"}},{"type":"Feature","geometry":{"type":"Point","coordinates":[-16.51485,15.83204]},"properties":{"name":""}},{"type":"Feature","geometry":{"type":"Point","coordinates":[-16.67135,15.07791]},"properties":{"name":""}},{"type":"Feature","geometry":{"type":"Point","coordinates":[-14.10492,16.25552]},"properties":{"name":"Marché Hebdomadaire de Golléré - tous les mercredi"}},{"type":"Feature","geometry":{"type":"Point","coordinates":[-17.2756,14.71295]},"properties":{"name":""}},{"type":"Feature","geometry":{"type":"Point","coordinates":[-17.25489,14.71255]},"properties":{"name":""}},{"type":"Feature","geometry":{"type":"Point","coordinates":[-17.47936,14.72019]},"properties":{"name":"Marche"}},{"type":"Feature","geometry":{"type":"Point","coordinates":[-14.5603,13.06156]},"properties":{"name":"Marché Fafacourou"}},{"type":"Feature","geometry":{"type":"Point","coordinates":[-15.54565,14.79884]},"properties":{"name":"Daaral"}},{"type":"Feature","geometry":{"type":"Point","coordinates":[-13.49995,16.14548]},"properties":{"name":"Marché principal السوق"}},{"type":"Feature","geometry":{"type":"Point","coordinates":[-13.50377,16.1472]},"properties":{"name":"Agence Canalplus وكالة كنالبلوس"}},{"type":"Feature","geometry":{"type":"Point","coordinates":[-17.45689,14.70549]},"properties":{"name":"Marché Grand-Dakar"}},{"type":"Feature","geometry":{"type":"Point","coordinates":[-13.17495,15.47986]},"properties":{"name":"Louma de Kanel"}},{"type":"Feature","geometry":{"type":"Point","coordinates":[-13.17487,15.49112]},"properties":{"name":"Marche de Kanel"}},{"type":"Feature","geometry":{"type":"Point","coordinates":[-16.62884,14.14647]},"properties":{"name":"Marché artisanal de Simal"}},{"type":"Feature","geometry":{"type":"Point","coordinates":[-15.81164,16.40325]},"properties":{"name":"Marché de PAKH"}},{"type":"Feature","geometry":{"type":"Point","coordinates":[-15.90345,13.75681]},"properties":{"name":"MARCHE"}},{"type":"Feature","geometry":{"type":"Point","coordinates":[-15.98031,12.83488]},"properties":{"name":"Marché Escale"}},{"type":"Feature","geometry":{"type":"Point","coordinates":[-16.21767,14.64836]},"properties":{"name":"Marché de Diourbel"}},{"type":"Feature","geometry":{"type":"Point","coordinates":[-16.07603,16.40076]},"properties":{"name":"Marché de Mboundoum-Barrage"}},{"type":"Feature","geometry":{"type":"Point","coordinates":[-17.45354,14.70832]},"properties":{"name":"chambre froide"}},{"type":"Feature","geometry":{"type":"Point","coordinates":[-16.50059,14.49639]},"properties":{"name":"Marché"}},{"type":"Feature","geometry":{"type":"Point","coordinates":[-16.81241,14.82291]},"properties":{"name":"Marché Bangadj"}},{"type":"Feature","geometry":{"type":"Point","coordinates":[-15.53384,13.43697]},"properties":{"name":"Soma New Market"}},{"type":"Feature","geometry":{"type":"Point","coordinates":[-16.68012,13.36865]},"properties":{"name":"market of coastal road"}},{"type":"Feature","geometry":{"type":"Point","coordinates":[-16.59133,13.28068]},"properties":{"name":"Mandina Ba Market"}},{"type":"Feature","geometry":{"type":"Point","coordinates":[-16.58801,13.28083]},"properties":{"name":"Mama Mini Market"}},{"type":"Feature","geometry":{"type":"Point","coordinates":[-13.91144,13.57674]},"properties":{"name":"Sine Lumo"}},{"type":"Feature","geometry":{"type":"Point","coordinates":[-16.27489,12.57981]},"properties":{"name":""}},{"type":"Feature","geometry":{"type":"Point","coordinates":[-17.51495,14.74587]},"properties":{"name":"Marché de Ngor"}},{"type":"Feature","geometry":{"type":"Point","coordinates":[-17.44637,14.70975]},"properties":{"name":""}},{"type":"Feature","geometry":{"type":"Point","coordinates":[-17.44652,14.70818]},"properties":{"name":""}},{"type":"Feature","geometry":{"type":"Point","coordinates":[-17.42924,14.67068]},"properties":{"name":""}},{"type":"Feature","geometry":{"type":"Point","coordinates":[-13.78651,16.14557]},"properties":{"name":"Marché Centrale (Djiéré M'bagne)"}},{"type":"Feature","geometry":{"type":"Point","coordinates":[-17.44454,14.70604]},"properties":{"name":"Marché HLM 5"}},{"type":"Feature","geometry":{"type":"Point","coordinates":[-16.98174,14.91802]},"properties":{"name":"Marché de Tivigne Tanghor"}},{"type":"Feature","geometry":{"type":"Point","coordinates":[-14.8793,13.69267]},"properties":{"name":""}},{"type":"Feature","geometry":{"type":"Point","coordinates":[-16.72996,13.88647]},"properties":{"name":"Marché de Dionewar"}},{"type":"Feature","geometry":{"type":"Point","coordinates":[-16.7045,14.07362]},"properties":{"name":"Marché"}},{"type":"Feature","geometry":{"type":"Point","coordinates":[-16.64265,14.05404]},"properties":{"name":"Marché"}},{"type":"Feature","geometry":{"type":"Point","coordinates":[-16.64046,14.05399]},"properties":{"name":"Marché"}},{"type":"Feature","geometry":{"type":"Point","coordinates":[-16.59227,13.92666]},"properties":{"name":"Marché Bassoul"}},{"type":"Feature","geometry":{"type":"Point","coordinates":[-16.59193,13.92479]},"properties":{"name":"Marché"}},{"type":"Feature","geometry":{"type":"Point","coordinates":[-16.7045,13.9368]},"properties":{"name":"Marché"}},{"type":"Feature","geometry":{"type":"Point","coordinates":[-16.76288,13.93366]},"properties":{"name":"Marché"}},{"type":"Feature","geometry":{"type":"Point","coordinates":[-17.49007,14.72901]},"properties":{"name":"Marché de l'occasion des vêtements"}},{"type":"Feature","geometry":{"type":"Point","coordinates":[-16.47604,13.79251]},"properties":{"name":"Supérette"}},{"type":"Feature","geometry":{"type":"Point","coordinates":[-16.47608,13.79365]},"properties":{"name":"Supérette"}},{"type":"Feature","geometry":{"type":"Point","coordinates":[-16.52593,15.28017]},"properties":{"name":"Marhé de ndande"}},{"type":"Feature","geometry":{"type":"Point","coordinates":[-13.7291,16.04329]},"properties":{"name":"Marché"}},{"type":"Feature","geometry":{"type":"Point","coordinates":[-13.7263,16.04781]},"properties":{"name":"Grand Marché Oréfondé"}},{"type":"Feature","geometry":{"type":"Point","coordinates":[-13.82535,16.01426]},"properties":{"name":"Marché"}},{"type":"Feature","geometry":{"type":"Point","coordinates":[-13.69912,16.10197]},"properties":{"name":"Marche quotidien"}},{"type":"Feature","geometry":{"type":"Point","coordinates":[-13.6991,16.10243]},"properties":{"name":"Mini Marché"}},{"type":"Feature","geometry":{"type":"Point","coordinates":[-13.69207,16.09954]},"properties":{"name":"Marché"}},{"type":"Feature","geometry":{"type":"Point","coordinates":[-13.67083,16.09403]},"properties":{"name":"Marché Tiaski"}},{"type":"Feature","geometry":{"type":"Point","coordinates":[-13.69741,16.10423]},"properties":{"name":"Marché de diorbivol"}},{"type":"Feature","geometry":{"type":"Point","coordinates":[-13.73087,16.0413]},"properties":{"name":"Marché centrale de orefonde"}},{"type":"Feature","geometry":{"type":"Point","coordinates":[-16.67607,13.48102]},"properties":{"name":"Bakau Old Town Market"}},{"type":"Feature","geometry":{"type":"Point","coordinates":[-16.74893,12.41775]},"properties":{"name":""}},{"type":"Feature","geometry":{"type":"Point","coordinates":[-16.69847,12.55864]},"properties":{"name":""}},{"type":"Feature","geometry":{"type":"Point","coordinates":[-14.27656,16.58541]},"properties":{"name":"Marché aux légumes"}},{"type":"Feature","geometry":{"type":"Point","coordinates":[-14.27454,16.58432]},"properties":{"name":"Marché de Bogué"}},{"type":"Feature","geometry":{"type":"Point","coordinates":[-14.32329,16.65733]},"properties":{"name":"Marché de Sarandogou"}},{"type":"Feature","geometry":{"type":"Point","coordinates":[-13.85069,16.23354]},"properties":{"name":"Marché Mbotto"}},{"type":"Feature","geometry":{"type":"Point","coordinates":[-13.50096,16.14401]},"properties":{"name":"Marché Kaedi"}},{"type":"Feature","geometry":{"type":"Point","coordinates":[-13.49577,16.14655]},"properties":{"name":"Marché du bétails"}},{"type":"Feature","geometry":{"type":"Point","coordinates":[-13.55724,16.14933]},"properties":{"name":"Marché à Bétails"}},{"type":"Feature","geometry":{"type":"Point","coordinates":[-12.84852,15.50944]},"properties":{"name":"Marché maghama"}},{"type":"Feature","geometry":{"type":"Point","coordinates":[-15.52048,16.55607]},"properties":{"name":"Marché Garak"}},{"type":"Feature","geometry":{"type":"Point","coordinates":[-15.12144,16.51221]},"properties":{"name":"marché de dimath"}},{"type":"Feature","geometry":{"type":"Point","coordinates":[-16.73612,13.40893]},"properties":{"name":""}},{"type":"Feature","geometry":{"type":"Point","coordinates":[-17.11219,14.55625]},"properties":{"name":"fruits et légumes"}},{"type":"Feature","geometry":{"type":"Point","coordinates":[-16.76971,14.04546]},"properties":{"name":""}},{"type":"Feature","geometry":{"type":"Point","coordinates":[-17.28487,14.77228]},"properties":{"name":"Marché unité 21"}},{"type":"Feature","geometry":{"type":"Point","coordinates":[-17.2874,14.77391]},"properties":{"name":"Marché 22"}}]}