{"type":"FeatureCollection","features":[{"type":"Feature","geometry":{"type":"Point","coordinates":[-17.44794,14.69343]},"properties":{"name":"Dakar","kind":"city"}},{"type":"Feature","geometry":{"type":"Point","coordinates":[-16.50487,16.02804]},"properties":{"name":"Saint-Louis","kind":"city"}},{"type":"Feature","geometry":{"type":"Point","coordinates":[-16.57565,13.45535]},"properties":{"name":"Banjul","kind":"town"}},{"type":"Feature","geometry":{"type":"Point","coordinates":[-16.64544,13.27439]},"properties":{"name":"Brikama","kind":"town"}},{"type":"Feature","geometry":{"type":"Point","coordinates":[-15.59795,13.57212]},"properties":{"name":"Farafenni","kind":"town"}},{"type":"Feature","geometry":{"type":"Point","coordinates":[-16.22782,14.65456]},"properties":{"name":"Diourbel","kind":"city"}},{"type":"Feature","geometry":{"type":"Point","coordinates":[-16.40422,14.33397]},"properties":{"name":"Fatick","kind":"city"}},{"type":"Feature","geometry":{"type":"Point","coordinates":[-16.22333,15.61186]},"properties":{"name":"Louga","kind":"city"}},{"type":"Feature","geometry":{"type":"Point","coordinates":[-13.25592,15.65656]},"properties":{"name":"Matam","kind":"city"}},{"type":"Feature","geometry":{"type":"Point","coordinates":[-13.66829,13.76926]},"properties":{"name":"Tambacounda","kind":"city"}},{"type":"Feature","geometry":{"type":"Point","coordinates":[-17.11931,14.9183]},"properties":{"name":"Kayar","kind":"town"}},{"type":"Feature","geometry":{"type":"Point","coordinates":[-17.27384,14.71642]},"properties":{"name":"Rufisque","kind":"city"}},{"type":"Feature","geometry":{"type":"Point","coordinates":[-17.39641,14.75154]},"properties":{"name":"Pikine","kind":"city"}},{"type":"Feature","geometry":{"type":"Point","coordinates":[-17.06112,14.77022]},"properties":{"name":"Pout","kind":"town"}},{"type":"Feature","geometry":{"type":"Point","coordinates":[-16.88122,15.13598]},"properties":{"name":"Mboro","kind":"town"}},{"type":"Feature","geometry":{"type":"Point","coordinates":[-16.34017,15.48005]},"properties":{"name":"Guéoul","kind":"town"}},{"type":"Feature","geometry":{"type":"Point","coordinates":[-16.44972,15.37401]},"properties":{"name":"Kébémer","kind":"town"}},{"type":"Feature","geometry":{"type":"Point","coordinates":[-16.63112,15.11296]},"properties":{"name":"Meckhe","kind":"town"}},{"type":"Feature","geometry":{"type":"Point","coordinates":[-16.81287,14.95151]},"properties":{"name":"Tivaouane","kind":"town"}},{"type":"Feature","geometry":{"type":"Point","coordinates":[-17.03483,14.58262]},"properties":{"name":"Sindia","kind":"town"}},{"type":"Feature","geometry":{"type":"Point","coordinates":[-16.97148,14.42074]},"properties":{"name":"M'bour","kind":"city"}},{"type":"Feature","geometry":{"type":"Point","coordinates":[-15.68845,16.46629]},"properties":{"name":"Richard-Toll","kind":"city"}},{"type":"Feature","geometry":{"type":"Point","coordinates":[-16.26895,15.91866]},"properties":{"name":"Mpal","kind":"town"}},{"type":"Feature","geometry":{"type":"Point","coordinates":[-16.46204,15.72009]},"properties":{"name":"Léona","kind":"town"}},{"type":"Feature","geometry":{"type":"Point","coordinates":[-15.11531,15.39542]},"properties":{"name":"Linguère","kind":"town"}},{"type":"Feature","geometry":{"type":"Point","coordinates":[-16.44926,14.69548]},"properties":{"name":"Bambey","kind":"town"}},{"type":"Feature","geometry":{"type":"Point","coordinates":[-16.06416,14.49124]},"properties":{"name":"Gossas","kind":"town"}},{"type":"Feature","geometry":{"type":"Point","coordinates":[-15.94557,14.27218]},"properties":{"name":"Guinguinéo","kind":"town"}},{"type":"Feature","geometry":{"type":"Point","coordinates":[-15.54843,14.10197]},"properties":{"name":"Kaffrine","kind":"city"}},{"type":"Feature","geometry":{"type":"Point","coordinates":[-15.90666,14.79712]},"properties":{"name":"Mbacké","kind":"town"}},{"type":"Feature","geometry":{"type":"Point","coordinates":[-15.87605,14.86456]},"properties":{"name":"Touba","kind":"city"}},{"type":"Feature","geometry":{"type":"Point","coordinates":[-16.04818,15.04072]},"properties":{"name":"Darou Mousty","kind":"town"}},{"type":"Feature","geometry":{"type":"Point","coordinates":[-15.55734,12.7099]},"properties":{"name":"Sédhiou","kind":"town"}},{"type":"Feature","geometry":{"type":"Point","coordinates":[-15.42786,12.65557]},"properties":{"name":"Tanaff","kind":"town"}},{"type":"Feature","geometry":{"type":"Point","coordinates":[-16.37253,13.87845]},"properties":{"name":"Sokone","kind":"town"}},{"type":"Feature","geometry":{"type":"Point","coordinates":[-16.42352,13.60632]},"properties":{"name":"Karang Poste","kind":"town"}},{"type":"Feature","geometry":{"type":"Point","coordinates":[-16.59875,13.04828]},"properties":{"name":"Diouloulou","kind":"town"}},{"type":"Feature","geometry":{"type":"Point","coordinates":[-17.09966,14.8255]},"properties":{"name":"Thiès","kind":"city"}},{"type":"Feature","geometry":{"type":"Point","coordinates":[-15.92815,13.91814]},"properties":{"name":"N'Doffane","kind":"town"}},{"type":"Feature","geometry":{"type":"Point","coordinates":[-16.73641,12.92756]},"properties":{"name":"Kafountine","kind":"town"}},{"type":"Feature","geometry":{"type":"Point","coordinates":[-15.50684,16.51651]},"properties":{"name":"Dagana","kind":"town"}},{"type":"Feature","geometry":{"type":"Point","coordinates":[-14.95867,16.65271]},"properties":{"name":"Podor","kind":"town"}},{"type":"Feature","geometry":{"type":"Point","coordinates":[-16.73617,15.01192]},"properties":{"name":"Pire Goureye","kind":"town"}},{"type":"Feature","geometry":{"type":"Point","coordinates":[-13.3211,15.60648]},"properties":{"name":"Ourossogui","kind":"town"}},{"type":"Feature","geometry":{"type":"Point","coordinates":[-13.16593,14.0197]},"properties":{"name":"Bala","kind":"town"}},{"type":"Feature","geometry":{"type":"Point","coordinates":[-13.45553,13.89206]},"properties":{"name":"Kothiary","kind":"town"}},{"type":"Feature","geometry":{"type":"Point","coordinates":[-13.76014,13.13889]},"properties":{"name":"Médina Gounass","kind":"city"}},{"type":"Feature","geometry":{"type":"Point","coordinates":[-14.10758,13.14724]},"properties":{"name":"Vélingara","kind":"town"}},{"type":"Feature","geometry":{"type":"Point","coordinates":[-14.07781,12.92797]},"properties":{"name":"Kounkané","kind":"town"}},{"type":"Feature","geometry":{"type":"Point","coordinates":[-14.4776,12.87733]},"properties":{"name":"Dabo","kind":"town"}},{"type":"Feature","geometry":{"type":"Point","coordinates":[-14.55134,12.86204]},"properties":{"name":"Tiara","kind":"town"}},{"type":"Feature","geometry":{"type":"Point","coordinates":[-16.01665,12.62969]},"properties":{"name":"Adéane","kind":"town"}},{"type":"Feature","geometry":{"type":"Point","coordinates":[-15.97852,12.83428]},"properties":{"name":"Marsassoum","kind":"town"}},{"type":"Feature","geometry":{"type":"Point","coordinates":[-16.67481,13.43876]},"properties":{"name":"Serrekunda","kind":"city"}},{"type":"Feature","geometry":{"type":"Point","coordinates":[-17.3112,14.78226]},"properties":{"name":"Keur Massar","kind":"town"}},{"type":"Feature","geometry":{"type":"Point","coordinates":[-16.9256,14.79146]},"properties":{"name":"Thiès","kind":"city"}},{"type":"Feature","geometry":{"type":"Point","coordinates":[-17.39007,14.77712]},"properties":{"name":"Guédiawaye","kind":"city"}},{"type":"Feature","geometry":{"type":"Point","coordinates":[-14.65879,13.43577]},"properties":{"name":"Bansang","kind":"town"}},{"type":"Feature","geometry":{"type":"Point","coordinates":[-17.22974,14.69383]},"properties":{"name":"Bargny","kind":"town"}},{"type":"Feature","geometry":{"type":"Point","coordinates":[-15.96871,15.92682]},"properties":{"name":"Keur Momar Sarr","kind":"town"}},{"type":"Feature","geometry":{"type":"Point","coordinates":[-16.7599,13.17602]},"properties":{"name":"Gunjur","kind":"town"}},{"type":"Feature","geometry":{"type":"Point","coordinates":[-16.66973,13.34224]},"properties":{"name":"Yundum","kind":"town"}},{"type":"Feature","geometry":{"type":"Point","coordinates":[-16.68417,13.36759]},"properties":{"name":"Old Yundum","kind":"town"}},{"type":"Feature","geometry":{"type":"Point","coordinates":[-17.05669,14.46352]},"properties":{"name":"Ngaparou","kind":"town"}},{"type":"Feature","geometry":{"type":"Point","coordinates":[-16.07283,15.41726]},"properties":{"name":"Ndiagne","kind":"town"}},{"type":"Feature","geometry":{"type":"Point","coordinates":[-16.1723,15.2823]},"properties":{"name":"Sagatta Gueth","kind":"town"}},{"type":"Feature","geometry":{"type":"Point","coordinates":[-13.89103,13.39925]},"properties":{"name":"Fatoto","kind":"town"}},{"type":"Feature","geometry":{"type":"Point","coordinates":[-14.76123,13.53908]},"properties":{"name":"Janjanbureh","kind":"town"}},{"type":"Feature","geometry":{"type":"Point","coordinates":[-16.461,12.72644]},"properties":{"name":"Tendouk","kind":"town"}},{"type":"Feature","geometry":{"type":"Point","coordinates":[-16.49002,14.94173]},"properties":{"name":"Baba Garage","kind":"town"}},{"type":"Feature","geometry":{"type":"Point","coordinates":[-16.53503,14.69341]},"properties":{"name":"Gat","kind":"town"}},{"type":"Feature","geometry":{"type":"Point","coordinates":[-16.56813,14.72336]},"properties":{"name":"Ndangalma","kind":"town"}},{"type":"Feature","geometry":{"type":"Point","coordinates":[-16.92943,14.34398]},"properties":{"name":"Nianing","kind":"town"}},{"type":"Feature","geometry":{"type":"Point","coordinates":[-15.75872,14.53811]},"properties":{"name":"Mbar","kind":"town"}},{"type":"Feature","geometry":{"type":"Point","coordinates":[-16.22897,12.80113]},"properties":{"name":"Bignona","kind":"town"}},{"type":"Feature","geometry":{"type":"Point","coordinates":[-15.19457,15.47142]},"properties":{"name":"Doundodji","kind":"town"}},{"type":"Feature","geometry":{"type":"Point","coordinates":[-14.56112,13.98042]},"properties":{"name":"Koumpentoum","kind":"town"}},{"type":"Feature","geometry":{"type":"Point","coordinates":[-15.70807,14.64298]},"properties":{"name":"Colobane","kind":"town"}},{"type":"Feature","geometry":{"type":"Point","coordinates":[-15.65048,14.78817]},"properties":{"name":"Taïf","kind":"town"}},{"type":"Feature","geometry":{"type":"Point","coordinates":[-16.20424,14.8946]},"properties":{"name":"Ndindy","kind":"town"}},{"type":"Feature","geometry":{"type":"Point","coordinates":[-15.89863,15.20775]},"properties":{"name":"Sam Yabal","kind":"town"}},{"type":"Feature","geometry":{"type":"Point","coordinates":[-16.41748,15.11153]},"properties":{"name":"Pékesse","kind":"town"}},{"type":"Feature","geometry":{"type":"Point","coordinates":[-16.2215,15.83214]},"properties":{"name":"Sakal","kind":"town"}},{"type":"Feature","geometry":{"type":"Point","coordinates":[-16.44688,15.96244]},"properties":{"name":"Gandon","kind":"town"}},{"type":"Feature","geometry":{"type":"Point","coordinates":[-13.01779,15.34784]},"properties":{"name":"Hamady Ounaré","kind":"town"}},{"type":"Feature","geometry":{"type":"Point","coordinates":[-13.13482,15.36778]},"properties":{"name":"Sinthiou Bamambé-Banadji","kind":"town"}},{"type":"Feature","geometry":{"type":"Point","coordinates":[-13.17568,15.49103]},"properties":{"name":"Kanel","kind":"town"}},{"type":"Feature","geometry":{"type":"Point","coordinates":[-13.35001,15.93975]},"properties":{"name":"Nguidjilone","kind":"town"}},{"type":"Feature","geometry":{"type":"Point","coordinates":[-13.59401,15.96602]},"properties":{"name":"Thilogne","kind":"town"}},{"type":"Feature","geometry":{"type":"Point","coordinates":[-13.94735,16.10674]},"properties":{"name":"Pété","kind":"town"}},{"type":"Feature","geometry":{"type":"Point","coordinates":[-14.69473,16.51864]},"properties":{"name":"Gamadji Saré","kind":"town"}},{"type":"Feature","geometry":{"type":"Point","coordinates":[-15.44985,16.57986]},"properties":{"name":"Gaé","kind":"town"}},{"type":"Feature","geometry":{"type":"Point","coordinates":[-17.00468,14.51229]},"properties":{"name":"Nguékhokh","kind":"town"}},{"type":"Feature","geometry":{"type":"Point","coordinates":[-16.50592,12.78208]},"properties":{"name":"Tionk Essil","kind":"town"}},{"type":"Feature","geometry":{"type":"Point","coordinates":[-16.54328,12.48896]},"properties":{"name":"Oussouye","kind":"town"}},{"type":"Feature","geometry":{"type":"Point","coordinates":[-16.58047,12.55915]},"properties":{"name":"Mlomp","kind":"town"}},{"type":"Feature","geometry":{"type":"Point","coordinates":[-13.87023,13.33239]},"properties":{"name":"Nyamanari","kind":"town"}},{"type":"Feature","geometry":{"type":"Point","coordinates":[-13.71353,13.4692]},"properties":{"name":"Gouloumbou","kind":"town"}},{"type":"Feature","geometry":{"type":"Point","coordinates":[-15.5804,13.60021]},"properties":{"name":"Medina Sabakh","kind":"town"}},{"type":"Feature","geometry":{"type":"Point","coordinates":[-16.61399,14.54259]},"properties":{"name":"Fissel","kind":"town"}},{"type":"Feature","geometry":{"type":"Point","coordinates":[-16.66168,14.81705]},"properties":{"name":"Touba Toul","kind":"town"}},{"type":"Feature","geometry":{"type":"Point","coordinates":[-13.92035,13.82057]},"properties":{"name":"Sinthiou Malème","kind":"town"}},{"type":"Feature","geometry":{"type":"Point","coordinates":[-14.29693,13.93908]},"properties":{"name":"Malem Niani","kind":"town"}},{"type":"Feature","geometry":{"type":"Point","coordinates":[-16.52516,15.2807]},"properties":{"name":"Ndande","kind":"town"}},{"type":"Feature","geometry":{"type":"Point","coordinates":[-12.86352,13.54275]},"properties":{"name":"Diana","kind":"town"}},{"type":"Feature","geometry":{"type":"Point","coordinates":[-16.67482,13.45377]},"properties":{"name":"Kanifing","kind":"town"}},{"type":"Feature","geometry":{"type":"Point","coordinates":[-15.74694,14.12821]},"properties":{"name":"Birkelane","kind":"town"}},{"type":"Feature","geometry":{"type":"Point","coordinates":[-16.47484,13.78386]},"properties":{"name":"Toubacouta","kind":"town"}},{"type":"Feature","geometry":{"type":"Point","coordinates":[-15.69605,13.04086]},"properties":{"name":"Bounkiling","kind":"town"}},{"type":"Feature","geometry":{"type":"Point","coordinates":[-15.64303,13.05789]},"properties":{"name":"Madina Wandifa","kind":"town"}},{"type":"Feature","geometry":{"type":"Point","coordinates":[-14.07974,13.86586]},"properties":{"name":"Koussanar","kind":"town"}},{"type":"Feature","geometry":{"type":"Point","coordinates":[-14.80354,13.97958]},"properties":{"name":"Koungheul","kind":"town"}},{"type":"Feature","geometry":{"type":"Point","coordinates":[-15.29191,14.08779]},"properties":{"name":"Malem-Hodar","kind":"town"}},{"type":"Feature","geometry":{"type":"Point","coordinates":[-16.7929,14.43575]},"properties":{"name":"Sandiara","kind":"town"}},{"type":"Feature","geometry":{"type":"Point","coordinates":[-16.3976,15.92427]},"properties":{"name":"Rao","kind":"town"}},{"type":"Feature","geometry":{"type":"Point","coordinates":[-13.67649,13.12342]},"properties":{"name":"Abissamaoune","kind":"town"}},{"type":"Feature","geometry":{"type":"Point","coordinates":[-16.27246,12.56349]},"properties":{"name":"Ziguinchor","kind":"city"}},{"type":"Feature","geometry":{"type":"Point","coordinates":[-15.8076,12.54616]},"properties":{"name":"Djibanar","kind":"town"}},{"type":"Feature","geometry":{"type":"Point","coordinates":[-15.87634,12.57294]},"properties":{"name":"Goudomp","kind":"town"}},{"type":"Feature","geometry":{"type":"Point","coordinates":[-15.62987,12.4969]},"properties":{"name":"Samine","kind":"town"}},{"type":"Feature","geometry":{"type":"Point","coordinates":[-15.51843,12.62598]},"properties":{"name":"Simbandi Brassou","kind":"town"}},{"type":"Feature","geometry":{"type":"Point","coordinates":[-15.68069,12.56985]},"properties":{"name":"Diattacounda","kind":"town"}},{"type":"Feature","geometry":{"type":"Point","coordinates":[-13.96824,14.12742]},"properties":{"name":"Dawady","kind":"town"}},{"type":"Feature","geometry":{"type":"Point","coordinates":[-14.32237,16.40109]},"properties":{"name":"Aéré Lao","kind":"town"}},{"type":"Feature","geometry":{"type":"Point","coordinates":[-13.85467,16.07358]},"properties":{"name":"Galoya Toucouleur","kind":"town"}},{"type":"Feature","geometry":{"type":"Point","coordinates":[-14.10256,16.25607]},"properties":{"name":"Golléré","kind":"town"}},{"type":"Feature","geometry":{"type":"Point","coordinates":[-14.6475,16.51001]},"properties":{"name":"Ndioum","kind":"town"}},{"type":"Feature","geometry":{"type":"Point","coordinates":[-14.98911,16.58727]},"properties":{"name":"Ndiandane","kind":"town"}},{"type":"Feature","geometry":{"type":"Point","coordinates":[-16.14059,16.27816]},"properties":{"name":"Ross Béthio","kind":"town"}},{"type":"Feature","geometry":{"type":"Point","coordinates":[-15.81048,16.5013]},"properties":{"name":"Rosso Sénégal","kind":"town"}},{"type":"Feature","geometry":{"type":"Point","coordinates":[-16.32445,15.92972]},"properties":{"name":"Fass Ngom","kind":"town"}},{"type":"Feature","geometry":{"type":"Point","coordinates":[-16.58992,13.2804]},"properties":{"name":"Mandina Ba","kind":"town"}},{"type":"Feature","geometry":{"type":"Point","coordinates":[-16.66343,12.50748]},"properties":{"name":"Elinkine","kind":"town"}},{"type":"Feature","geometry":{"type":"Point","coordinates":[-13.28548,13.3173]},"properties":{"name":"Dialacoto","kind":"town"}},{"type":"Feature","geometry":{"type":"Point","coordinates":[-13.51118,13.52615]},"properties":{"name":"Missirah","kind":"town"}},{"type":"Feature","geometry":{"type":"Point","coordinates":[-12.94507,15.19924]},"properties":{"name":"Semmé","kind":"town"}},{"type":"Feature","geometry":{"type":"Point","coordinates":[-16.26062,13.98505]},"properties":{"name":"Passy","kind":"town"}},{"type":"Feature","geometry":{"type":"Point","coordinates":[-17.11401,14.55913]},"properties":{"name":"Popenguine-Ndayane","kind":"town"}},{"type":"Feature","geometry":{"type":"Point","coordinates":[-17.0756,14.48571]},"properties":{"name":"La Somone","kind":"town"}},{"type":"Feature","geometry":{"type":"Point","coordinates":[-14.9401,12.89212]},"properties":{"name":"Kolda","kind":"city"}},{"type":"Feature","geometry":{"type":"Point","coordinates":[-17.3376,14.80148]},"properties":{"name":"Malika","kind":"town"}},{"type":"Feature","geometry":{"type":"Point","coordinates":[-14.2869,13.66522]},"properties":{"name":"Makacolibantang","kind":"town"}},{"type":"Feature","geometry":{"type":"Point","coordinates":[-15.349,15.64857]},"properties":{"name":"Mbeuleukhé","kind":"town"}},{"type":"Feature","geometry":{"type":"Point","coordinates":[-15.06022,13.66214]},"properties":{"name":"Kudang","kind":"town"}},{"type":"Feature","geometry":{"type":"Point","coordinates":[-14.88949,13.67062]},"properties":{"name":"Kuntaur","kind":"town"}},{"type":"Feature","geometry":{"type":"Point","coordinates":[-14.8788,13.6924]},"properties":{"name":"Wassu","kind":"town"}},{"type":"Feature","geometry":{"type":"Point","coordinates":[-16.70282,14.42187]},"properties":{"name":"Thiadiaye","kind":"town"}},{"type":"Feature","geometry":{"type":"Point","coordinates":[-16.76219,13.93437]},"properties":{"name":"Djifer","kind":"town"}},{"type":"Feature","geometry":{"type":"Point","coordinates":[-16.76446,14.0131]},"properties":{"name":"Palmarin Facao","kind":"town"}},{"type":"Feature","geometry":{"type":"Point","coordinates":[-14.92753,13.53761]},"properties":{"name":"Brikama Ba","kind":"town"}},{"type":"Feature","geometry":{"type":"Point","coordinates":[-12.87271,13.82925]},"properties":{"name":"Bani Israël","kind":"town"}},{"type":"Feature","geometry":{"type":"Point","coordinates":[-15.74537,14.3651]},"properties":{"name":"Mboss","kind":"town"}},{"type":"Feature","geometry":{"type":"Point","coordinates":[-15.19883,14.36506]},"properties":{"name":"Ndioum Ngainth","kind":"town"}},{"type":"Feature","geometry":{"type":"Point","coordinates":[-15.77475,13.74557]},"properties":{"name":"Nioro du Rip","kind":"town"}},{"type":"Feature","geometry":{"type":"Point","coordinates":[-15.90519,13.76323]},"properties":{"name":"Taïba Niassène","kind":"town"}},{"type":"Feature","geometry":{"type":"Point","coordinates":[-14.74185,14.22481]},"properties":{"name":"Lour-Escale","kind":"town"}},{"type":"Feature","geometry":{"type":"Point","coordinates":[-13.93991,13.41404]},"properties":{"name":"Garowol","kind":"town"}},{"type":"Feature","geometry":{"type":"Point","coordinates":[-14.05092,13.47142]},"properties":{"name":"Badja Kunda","kind":"town"}},{"type":"Feature","geometry":{"type":"Point","coordinates":[-14.215,13.31004]},"properties":{"name":"Basse Santa Su","kind":"town"}},{"type":"Feature","geometry":{"type":"Point","coordinates":[-16.70762,13.41476]},"properties":{"name":"Sukuta","kind":"town"}},{"type":"Feature","geometry":{"type":"Point","coordinates":[-16.67405,13.40379]},"properties":{"name":"Wellingara","kind":"town"}},{"type":"Feature","geometry":{"type":"Point","coordinates":[-16.66058,13.40381]},"properties":{"name":"Abuko","kind":"town"}},{"type":"Feature","geometry":{"type":"Point","coordinates":[-16.42609,13.56415]},"properties":{"name":"Fass","kind":"town"}},{"type":"Feature","geometry":{"type":"Point","coordinates":[-16.503,14.5015]},"properties":{"name":"Diohine","kind":"town"}},{"type":"Feature","geometry":{"type":"Point","coordinates":[-14.94883,13.43739]},"properties":{"name":"Pata","kind":"town"}},{"type":"Feature","geometry":{"type":"Point","coordinates":[-14.71465,13.29284]},"properties":{"name":"Médina Yoro Foulah","kind":"town"}},{"type":"Feature","geometry":{"type":"Point","coordinates":[-14.33523,12.89181]},"properties":{"name":"Mampatim","kind":"town"}},{"type":"Feature","geometry":{"type":"Point","coordinates":[-15.99196,15.50595]},"properties":{"name":"Coki","kind":"town"}},{"type":"Feature","geometry":{"type":"Point","coordinates":[-15.86779,15.47922]},"properties":{"name":"Thiamène","kind":"town"}},{"type":"Feature","geometry":{"type":"Point","coordinates":[-17.18424,14.72022]},"properties":{"name":"Diamniadio","kind":"town"}},{"type":"Feature","geometry":{"type":"Point","coordinates":[-13.67955,13.09481]},"properties":{"name":"Rawdatou","kind":"town"}},{"type":"Feature","geometry":{"type":"Point","coordinates":[-13.67156,13.13679]},"properties":{"name":"Médina Elmi","kind":"town"}},{"type":"Feature","geometry":{"type":"Point","coordinates":[-16.63101,13.6903]},"properties":{"name":"Béttenty","kind":"town"}},{"type":"Feature","geometry":{"type":"Point","coordinates":[-16.29034,14.46285]},"properties":{"name":"Diakhao","kind":"town"}},{"type":"Feature","geometry":{"type":"Point","coordinates":[-16.66122,14.18926]},"properties":{"name":"Diofior","kind":"town"}},{"type":"Feature","geometry":{"type":"Point","coordinates":[-16.73013,13.88782]},"properties":{"name":"Dionewar","kind":"town"}},{"type":"Feature","geometry":{"type":"Point","coordinates":[-16.52513,14.36725]},"properties":{"name":"Diouroup","kind":"town"}},{"type":"Feature","geometry":{"type":"Point","coordinates":[-16.03421,14.35421]},"properties":{"name":"Fass","kind":"town"}},{"type":"Feature","geometry":{"type":"Point","coordinates":[-16.46748,14.12635]},"properties":{"name":"Foundiougne","kind":"town"}},{"type":"Feature","geometry":{"type":"Point","coordinates":[-16.27388,14.24374]},"properties":{"name":"Gandiaye","kind":"town"}},{"type":"Feature","geometry":{"type":"Point","coordinates":[-16.05673,13.84833]},"properties":{"name":"Keur Madiabel","kind":"town"}},{"type":"Feature","geometry":{"type":"Point","coordinates":[-16.06307,14.08764]},"properties":{"name":"Koutal","kind":"town"}},{"type":"Feature","geometry":{"type":"Point","coordinates":[-16.03689,14.15876]},"properties":{"name":"Kahone","kind":"town"}},{"type":"Feature","geometry":{"type":"Point","coordinates":[-16.07639,14.13882]},"properties":{"name":"Kaolack","kind":"city"}},{"type":"Feature","geometry":{"type":"Point","coordinates":[-15.93266,14.07051]},"properties":{"name":"Latmingué","kind":"town"}},{"type":"Feature","geometry":{"type":"Point","coordinates":[-16.60727,14.31405]},"properties":{"name":"Loul Séssène","kind":"town"}},{"type":"Feature","geometry":{"type":"Point","coordinates":[-16.69089,14.078]},"properties":{"name":"Ndangane Campement","kind":"town"}},{"type":"Feature","geometry":{"type":"Point","coordinates":[-16.16681,14.07561]},"properties":{"name":"Ndiaffate Escale","kind":"town"}},{"type":"Feature","geometry":{"type":"Point","coordinates":[-16.15258,13.94993]},"properties":{"name":"Ndiédieng","kind":"town"}},{"type":"Feature","geometry":{"type":"Point","coordinates":[-16.16633,13.79511]},"properties":{"name":"Ndramé Escale","kind":"town"}},{"type":"Feature","geometry":{"type":"Point","coordinates":[-16.39794,14.4815]},"properties":{"name":"Niakhar","kind":"town"}},{"type":"Feature","geometry":{"type":"Point","coordinates":[-16.72499,13.8567]},"properties":{"name":"Niodior","kind":"town"}},{"type":"Feature","geometry":{"type":"Point","coordinates":[-16.47971,14.08141]},"properties":{"name":"Soum","kind":"town"}},{"type":"Feature","geometry":{"type":"Point","coordinates":[-16.32837,13.80063]},"properties":{"name":"Touba Mourid","kind":"town"}},{"type":"Feature","geometry":{"type":"Point","coordinates":[-16.06255,13.75841]},"properties":{"name":"Wack Ngouna","kind":"town"}},{"type":"Feature","geometry":{"type":"Point","coordinates":[-15.66948,13.91508]},"properties":{"name":"Mabo","kind":"town"}},{"type":"Feature","geometry":{"type":"Point","coordinates":[-15.405,13.82906]},"properties":{"name":"Nganda","kind":"town"}},{"type":"Feature","geometry":{"type":"Point","coordinates":[-15.40165,13.81483]},"properties":{"name":"Kélimane","kind":"town"}},{"type":"Feature","geometry":{"type":"Point","coordinates":[-15.50588,14.06544]},"properties":{"name":"Ngodiba","kind":"town"}},{"type":"Feature","geometry":{"type":"Point","coordinates":[-12.86771,15.26413]},"properties":{"name":"Waoundé","kind":"town"}},{"type":"Feature","geometry":{"type":"Point","coordinates":[-17.13908,14.74075]},"properties":{"name":"Sebikotane","kind":"town"}},{"type":"Feature","geometry":{"type":"Point","coordinates":[-15.48097,15.34948]},"properties":{"name":"Dahra Djoloff","kind":"town"}},{"type":"Feature","geometry":{"type":"Point","coordinates":[-16.6918,14.76054]},"properties":{"name":"Khombole","kind":"town"}},{"type":"Feature","geometry":{"type":"Point","coordinates":[-16.86856,15.1049]},"properties":{"name":"Darou Khoudoss","kind":"town"}},{"type":"Feature","geometry":{"type":"Point","coordinates":[-17.22826,14.7793]},"properties":{"name":"Sangalkam","kind":"town"}},{"type":"Feature","geometry":{"type":"Point","coordinates":[-16.80706,14.76863]},"properties":{"name":"Tiénaba","kind":"town"}},{"type":"Feature","geometry":{"type":"Point","coordinates":[-16.86569,14.60693]},"properties":{"name":"Tassette","kind":"town"}},{"type":"Feature","geometry":{"type":"Point","coordinates":[-16.72622,14.53825]},"properties":{"name":"Ndiaganiao","kind":"town"}},{"type":"Feature","geometry":{"type":"Point","coordinates":[-16.6158,14.78978]},"properties":{"name":"Réfane","kind":"town"}},{"type":"Feature","geometry":{"type":"Point","coordinates":[-17.18404,14.80391]},"properties":{"name":"Bambylor","kind":"town"}},{"type":"Feature","geometry":{"type":"Point","coordinates":[-15.82615,13.69478]},"properties":{"name":"Porokhane","kind":"town"}},{"type":"Feature","geometry":{"type":"Point","coordinates":[-16.16723,14.55327]},"properties":{"name":"Darou Salam","kind":"town"}},{"type":"Feature","geometry":{"type":"Point","coordinates":[-16.19424,15.11273]},"properties":{"name":"Mbacké Kadjor","kind":"town"}},{"type":"Feature","geometry":{"type":"Point","coordinates":[-14.80209,13.80279]},"properties":{"name":"Kaba","kind":"town"}},{"type":"Feature","geometry":{"type":"Point","coordinates":[-14.92876,14.28003]},"properties":{"name":"Ngainthe Pathè","kind":"town"}},{"type":"Feature","geometry":{"type":"Point","coordinates":[-15.08581,14.23927]},"properties":{"name":"Pafa","kind":"town"}},{"type":"Feature","geometry":{"type":"Point","coordinates":[-14.61812,13.80763]},"properties":{"name":"Bamba Thialène","kind":"town"}},{"type":"Feature","geometry":{"type":"Point","coordinates":[-13.74967,12.9531]},"properties":{"name":"Linkéring","kind":"town"}},{"type":"Feature","geometry":{"type":"Point","coordinates":[-15.63347,13.31548]},"properties":{"name":"Ndiamacouta","kind":"town"}},{"type":"Feature","geometry":{"type":"Point","coordinates":[-14.14204,12.91346]},"properties":{"name":"Diaobé-Kabendou","kind":"town"}},{"type":"Feature","geometry":{"type":"Point","coordinates":[-13.96255,12.75997]},"properties":{"name":"Pakour","kind":"town"}},{"type":"Feature","geometry":{"type":"Point","coordinates":[-16.17097,12.66391]},"properties":{"name":"Coubalan","kind":"town"}},{"type":"Feature","geometry":{"type":"Point","coordinates":[-16.71668,12.35598]},"properties":{"name":"Kabrousse","kind":"town"}},{"type":"Feature","geometry":{"type":"Point","coordinates":[-15.10551,12.76563]},"properties":{"name":"Saré Yoba Diéga","kind":"town"}},{"type":"Feature","geometry":{"type":"Point","coordinates":[-15.53553,13.44464]},"properties":{"name":"Soma","kind":"town"}},{"type":"Feature","geometry":{"type":"Point","coordinates":[-16.91666,14.28784]},"properties":{"name":"Pointe-Sarène","kind":"town"}},{"type":"Feature","geometry":{"type":"Point","coordinates":[-15.34257,15.5893]},"properties":{"name":"Yang-Yang","kind":"town"}},{"type":"Feature","geometry":{"type":"Point","coordinates":[-15.662,15.3993]},"properties":{"name":"Boulal","kind":"town"}},{"type":"Feature","geometry":{"type":"Point","coordinates":[-16.31788,13.53919]},"properties":{"name":"Ndungu Kebbe","kind":"town"}},{"type":"Feature","geometry":{"type":"Point","coordinates":[-13.6557,15.1242]},"properties":{"name":"Oudalaye","kind":"town"}},{"type":"Feature","geometry":{"type":"Point","coordinates":[-12.93092,14.8775]},"properties":{"name":"Ndiot","kind":"town"}},{"type":"Feature","geometry":{"type":"Point","coordinates":[-15.24815,12.84955]},"properties":{"name":"Diannah Malary","kind":"town"}},{"type":"Feature","geometry":{"type":"Point","coordinates":[-16.58029,14.75916]},"properties":{"name":"Nderep","kind":"town"}},{"type":"Feature","geometry":{"type":"Point","coordinates":[-16.59573,14.76587]},"properties":{"name":"Bokhe","kind":"town"}},{"type":"Feature","geometry":{"type":"Point","coordinates":[-15.05854,14.93746]},"properties":{"name":"Thiel","kind":"town"}},{"type":"Feature","geometry":{"type":"Point","coordinates":[-14.6463,15.57058]},"properties":{"name":"Lougré Thioly","kind":"town"}},{"type":"Feature","geometry":{"type":"Point","coordinates":[-14.46425,15.26696]},"properties":{"name":"Younoferé","kind":"town"}},{"type":"Feature","geometry":{"type":"Point","coordinates":[-16.72137,12.99808]},"properties":{"name":"Abene","kind":"town"}},{"type":"Feature","geometry":{"type":"Point","coordinates":[-17.22869,14.68746]},"properties":{"name":"Soowou Saloum","kind":"town"}},{"type":"Feature","geometry":{"type":"Point","coordinates":[-16.17216,15.36608]},"properties":{"name":"Ndiob","kind":"town"}},{"type":"Feature","geometry":{"type":"Point","coordinates":[-12.81787,12.63213]},"properties":{"name":"Salemata","kind":"town"}},{"type":"Feature","geometry":{"type":"Point","coordinates":[-13.96239,15.29808]},"properties":{"name":"Ranérou","kind":"town"}},{"type":"Feature","geometry":{"type":"Point","coordinates":[-14.32481,15.87513]},"properties":{"name":"Gueye Kadar","kind":"town"}},{"type":"Feature","geometry":{"type":"Point","coordinates":[-16.64389,13.38735]},"properties":{"name":"Lamin","kind":"town"}},{"type":"Feature","geometry":{"type":"Point","coordinates":[-16.65305,13.37654]},"properties":{"name":"Banjulinding","kind":"town"}},{"type":"Feature","geometry":{"type":"Point","coordinates":[-17.01483,14.44111]},"properties":{"name":"Saly Portudal","kind":"town"}},{"type":"Feature","geometry":{"type":"Point","coordinates":[-16.75969,13.09131]},"properties":{"name":"Kartong","kind":"town"}},{"type":"Feature","geometry":{"type":"Point","coordinates":[-16.53328,14.80319]},"properties":{"name":"Lambaye","kind":"town"}},{"type":"Feature","geometry":{"type":"Point","coordinates":[-14.7406,12.69366]},"properties":{"name":"Salikégné","kind":"town"}},{"type":"Feature","geometry":{"type":"Point","coordinates":[-14.43979,13.81859]},"properties":{"name":"Méréto","kind":"town"}},{"type":"Feature","geometry":{"type":"Point","coordinates":[-16.28915,14.63037]},"properties":{"name":"Ngohe","kind":"town"}},{"type":"Feature","geometry":{"type":"Point","coordinates":[-12.96193,15.28443]},"properties":{"name":"Orkadiere","kind":"town"}},{"type":"Feature","geometry":{"type":"Point","coordinates":[-17.28237,14.77057]},"properties":{"name":"Jaxaay","kind":"town"}},{"type":"Feature","geometry":{"type":"Point","coordinates":[-17.32615,14.74154]},"properties":{"name":"Mbao","kind":"town"}},{"type":"Feature","geometry":{"type":"Point","coordinates":[-17.35159,14.75606]},"properties":{"name":"Diamaguène-Sicap Mbao","kind":"town"}},{"type":"Feature","geometry":{"type":"Point","coordinates":[-17.36878,14.74734]},"properties":{"name":"Thiaroye","kind":"town"}},{"type":"Feature","geometry":{"type":"Point","coordinates":[-15.28712,13.95438]},"properties":{"name":"Diokoul Mbelbouck","kind":"town"}},{"type":"Feature","geometry":{"type":"Point","coordinates":[-14.49171,14.43506]},"properties":{"name":"Payar","kind":"town"}},{"type":"Feature","geometry":{"type":"Point","coordinates":[-16.83552,14.15828]},"properties":{"name":"Joal-Fadiouth","kind":"town"}},{"type":"Feature","geometry":{"type":"Point","coordinates":[-13.66176,15.77476]},"properties":{"name":"Liou","kind":"town"}},{"type":"Feature","geometry":{"type":"Point","coordinates":[-14.80902,15.83385]},"properties":{"name":"Labgar","kind":"town"}},{"type":"Feature","geometry":{"type":"Point","coordinates":[-17.35709,14.77577]},"properties":{"name":"Yeumbeul","kind":"town"}},{"type":"Feature","geometry":{"type":"Point","coordinates":[-14.38791,15.61882]},"properties":{"name":"Ndiayene Peulh","kind":"town"}},{"type":"Feature","geometry":{"type":"Point","coordinates":[-13.13103,15.44519]},"properties":{"name":"Soringho","kind":"town"}},{"type":"Feature","geometry":{"type":"Point","coordinates":[-16.54345,13.48558]},"properties":{"name":"Barra","kind":"town"}},{"type":"Feature","geometry":{"type":"Point","coordinates":[-16.66672,13.33338]},"properties":{"name":"Busumbala","kind":"town"}},{"type":"Feature","geometry":{"type":"Point","coordinates":[-16.80707,15.06038]},"properties":{"name":"Ngakham 2","kind":"town"}},{"type":"Feature","geometry":{"type":"Point","coordinates":[-17.17098,14.81114]},"properties":{"name":"Gorom2","kind":"town"}},{"type":"Feature","geometry":{"type":"Point","coordinates":[-16.68617,13.28422]},"properties":{"name":"Djalabango","kind":"town"}}]}